[
    {
        "CCSDS_OMM_VERS": "3.0",
        "COMMENT": "GENERATED VIA SPACE-TRACK.ORG API",
        "CREATION_DATE": "2024-10-21T17:49:28",
        "ORIGINATOR": "18 SPCS",
        "OBJECT_NAME": "SL-16 R/B",
        "OBJECT_ID": "1994-077B",
        "CENTER_NAME": "EARTH",
        "REF_FRAME": "TEME",
        "TIME_SYSTEM": "UTC",
        "MEAN_ELEMENT_THEORY": "SGP4",
        "EPOCH": "2024-10-21T04:58:24.530304",
        "MEAN_MOTION": "14.15447672",
        "ECCENTRICITY": "0.00043140",
        "INCLINATION": "70.9842",
        "RA_OF_ASC_NODE": "333.7411",
        "ARG_OF_PERICENTER": "240.8393",
        "MEAN_ANOMALY": "119.2298",
        "EPHEMERIS_TYPE": "0",
        "CLASSIFICATION_TYPE": "U",
        "NORAD_CAT_ID": "23405",
        "ELEMENT_SET_NO": "999",
        "REV_AT_EPOCH": "54484",
        "BSTAR": "0.00014314000000",
        "MEAN_MOTION_DOT": "0.00000232",
        "MEAN_MOTION_DDOT": "0.0000000000000",
        "SEMIMAJOR_AXIS": "7218.927",
        "PERIOD": "101.735",
        "APOAPSIS": "843.906",
        "PERIAPSIS": "837.677",
        "OBJECT_TYPE": "ROCKET BODY",
        "RCS_SIZE": "LARGE",
        "COUNTRY_CODE": "CIS",
        "LAUNCH_DATE": "1994-11-24",
        "SITE": "TTMTR",
        "DECAY_DATE": null,
        "FILE": "4530563",
        "GP_ID": "271182274",
        "TLE_LINE0": "0 SL-16 R/B",
        "TLE_LINE1": "1 23405U 94077B   24295.20722836  .00000232  00000-0  14314-3 0  9996",
        "TLE_LINE2": "2 23405  70.9842 333.7411 0004314 240.8393 119.2298 14.15447672544847"
    },
    {
        "CCSDS_OMM_VERS": "3.0",
        "COMMENT": "GENERATED VIA SPACE-TRACK.ORG API",
        "CREATION_DATE": "2024-10-22T07:06:17",
        "ORIGINATOR": "18 SPCS",
        "OBJECT_NAME": "COSMOS 2322",
        "OBJECT_ID": "1995-058A",
        "CENTER_NAME": "EARTH",
        "REF_FRAME": "TEME",
        "TIME_SYSTEM": "UTC",
        "MEAN_ELEMENT_THEORY": "SGP4",
        "EPOCH": "2024-10-22T02:43:43.330944",
        "MEAN_MOTION": "14.13675517",
        "ECCENTRICITY": "0.00107010",
        "INCLINATION": "70.9864",
        "RA_OF_ASC_NODE": "177.6753",
        "ARG_OF_PERICENTER": "336.4383",
        "MEAN_ANOMALY": "23.6247",
        "EPHEMERIS_TYPE": "0",
        "CLASSIFICATION_TYPE": "U",
        "NORAD_CAT_ID": "23704",
        "ELEMENT_SET_NO": "999",
        "REV_AT_EPOCH": "49508",
        "BSTAR": "-0.00000142270000",
        "MEAN_MOTION_DOT": "-0.00000050",
        "MEAN_MOTION_DDOT": "0.0000000000000",
        "SEMIMAJOR_AXIS": "7224.958",
        "PERIOD": "101.862",
        "APOAPSIS": "854.555",
        "PERIAPSIS": "839.092",
        "OBJECT_TYPE": "PAYLOAD",
        "RCS_SIZE": "LARGE",
        "COUNTRY_CODE": "CIS",
        "LAUNCH_DATE": "1995-10-31",
        "SITE": "TTMTR",
        "DECAY_DATE": null,
        "FILE": "4530753",
        "GP_ID": "271239977",
        "TLE_LINE0": "0 COSMOS 2322",
        "TLE_LINE1": "1 23704U 95058A   24296.11369596 -.00000050  00000-0 -14227-5 0  9994",
        "TLE_LINE2": "2 23704  70.9864 177.6753 0010701 336.4383  23.6247 14.13675517495087"
    },
    {
        "CCSDS_OMM_VERS": "3.0",
        "COMMENT": "GENERATED VIA SPACE-TRACK.ORG API",
        "CREATION_DATE": "2024-10-22T06:26:16",
        "ORIGINATOR": "18 SPCS",
        "OBJECT_NAME": "SL-16 R/B",
        "OBJECT_ID": "1995-058B",
        "CENTER_NAME": "EARTH",
        "REF_FRAME": "TEME",
        "TIME_SYSTEM": "UTC",
        "MEAN_ELEMENT_THEORY": "SGP4",
        "EPOCH": "2024-10-22T02:36:11.292192",
        "MEAN_MOTION": "14.15384329",
        "ECCENTRICITY": "0.00123130",
        "INCLINATION": "71.0199",
        "RA_OF_ASC_NODE": "157.4410",
        "ARG_OF_PERICENTER": "177.7806",
        "MEAN_ANOMALY": "182.3374",
        "EPHEMERIS_TYPE": "0",
        "CLASSIFICATION_TYPE": "U",
        "NORAD_CAT_ID": "23705",
        "ELEMENT_SET_NO": "999",
        "REV_AT_EPOCH": "49689",
        "BSTAR": "-0.00002941800000",
        "MEAN_MOTION_DOT": "-0.00000105",
        "MEAN_MOTION_DDOT": "0.0000000000000",
        "SEMIMAJOR_AXIS": "7219.142",
        "PERIOD": "101.739",
        "APOAPSIS": "849.896",
        "PERIAPSIS": "832.118",
        "OBJECT_TYPE": "ROCKET BODY",
        "RCS_SIZE": "LARGE",
        "COUNTRY_CODE": "CIS",
        "LAUNCH_DATE": "1995-10-31",
        "SITE": "TTMTR",
        "DECAY_DATE": null,
        "FILE": "4530633",
        "GP_ID": "271236475",
        "TLE_LINE0": "0 SL-16 R/B",
        "TLE_LINE1": "1 23705U 95058B   24296.10846403 -.00000105  00000-0 -29418-4 0  9999",
        "TLE_LINE2": "2 23705  71.0199 157.4410 0012313 177.7806 182.3374 14.15384329496898"
    },
    {
        "CCSDS_OMM_VERS": "3.0",
        "COMMENT": "GENERATED VIA SPACE-TRACK.ORG API",
        "CREATION_DATE": "2024-10-21T17:49:28",
        "ORIGINATOR": "18 SPCS",
        "OBJECT_NAME": "ADEOS",
        "OBJECT_ID": "1996-046A",
        "CENTER_NAME": "EARTH",
        "REF_FRAME": "TEME",
        "TIME_SYSTEM": "UTC",
        "MEAN_ELEMENT_THEORY": "SGP4",
        "EPOCH": "2024-10-21T12:10:45.815808",
        "MEAN_MOTION": "14.30064539",
        "ECCENTRICITY": "0.00023230",
        "INCLINATION": "98.8863",
        "RA_OF_ASC_NODE": "329.1022",
        "ARG_OF_PERICENTER": "82.3095",
        "MEAN_ANOMALY": "277.8351",
        "EPHEMERIS_TYPE": "0",
        "CLASSIFICATION_TYPE": "U",
        "NORAD_CAT_ID": "24277",
        "ELEMENT_SET_NO": "999",
        "REV_AT_EPOCH": "46937",
        "BSTAR": "0.00016494000000",
        "MEAN_MOTION_DOT": "0.00000380",
        "MEAN_MOTION_DDOT": "0.0000000000000",
        "SEMIMAJOR_AXIS": "7169.652",
        "PERIOD": "100.695",
        "APOAPSIS": "793.183",
        "PERIAPSIS": "789.852",
        "OBJECT_TYPE": "PAYLOAD",
        "RCS_SIZE": "LARGE",
        "COUNTRY_CODE": "JPN",
        "LAUNCH_DATE": "1996-08-17",
        "SITE": "TNSTA",
        "DECAY_DATE": null,
        "FILE": "4530563",
        "GP_ID": "271182894",
        "TLE_LINE0": "0 ADEOS",
        "TLE_LINE1": "1 24277U 96046A   24295.50747472  .00000380  00000-0  16494-3 0  9993",
        "TLE_LINE2": "2 24277  98.8863 329.1022 0002323  82.3095 277.8351 14.30064539469379"
    },
    {
        "CCSDS_OMM_VERS": "3.0",
        "COMMENT": "GENERATED VIA SPACE-TRACK.ORG API",
        "CREATION_DATE": "2024-10-22T04:17:00",
        "ORIGINATOR": "18 SPCS",
        "OBJECT_NAME": "H-2 R/B",
        "OBJECT_ID": "1996-046C",
        "CENTER_NAME": "EARTH",
        "REF_FRAME": "TEME",
        "TIME_SYSTEM": "UTC",
        "MEAN_ELEMENT_THEORY": "SGP4",
        "EPOCH": "2024-10-21T23:14:27.796128",
        "MEAN_MOTION": "13.47353043",
        "ECCENTRICITY": "0.02986000",
        "INCLINATION": "98.6924",
        "RA_OF_ASC_NODE": "299.2183",
        "ARG_OF_PERICENTER": "283.9748",
        "MEAN_ANOMALY": "90.7317",
        "EPHEMERIS_TYPE": "0",
        "CLASSIFICATION_TYPE": "U",
        "NORAD_CAT_ID": "24279",
        "ELEMENT_SET_NO": "999",
        "REV_AT_EPOCH": "38533",
        "BSTAR": "0.00019094000000",
        "MEAN_MOTION_DOT": "0.00000114",
        "MEAN_MOTION_DDOT": "0.0000000000000",
        "SEMIMAJOR_AXIS": "7460.150",
        "PERIOD": "106.876",
        "APOAPSIS": "1304.775",
        "PERIAPSIS": "859.255",
        "OBJECT_TYPE": "ROCKET BODY",
        "RCS_SIZE": "LARGE",
        "COUNTRY_CODE": "JPN",
        "LAUNCH_DATE": "1996-08-17",
        "SITE": "TNSTA",
        "DECAY_DATE": null,
        "FILE": "4530606",
        "GP_ID": "271213144",
        "TLE_LINE0": "0 H-2 R/B",
        "TLE_LINE1": "1 24279U 96046C   24295.96837727  .00000114  00000-0  19094-3 0  9992",
        "TLE_LINE2": "2 24279  98.6924 299.2183 0298600 283.9748  90.7317 13.47353043385336"
    },
    {
        "CCSDS_OMM_VERS": "3.0",
        "COMMENT": "GENERATED VIA SPACE-TRACK.ORG API",
        "CREATION_DATE": "2024-10-21T17:49:28",
        "ORIGINATOR": "18 SPCS",
        "OBJECT_NAME": "SL-16 R/B",
        "OBJECT_ID": "1996-051B",
        "CENTER_NAME": "EARTH",
        "REF_FRAME": "TEME",
        "TIME_SYSTEM": "UTC",
        "MEAN_ELEMENT_THEORY": "SGP4",
        "EPOCH": "2024-10-21T01:41:09.761568",
        "MEAN_MOTION": "14.12455576",
        "ECCENTRICITY": "0.00147220",
        "INCLINATION": "70.7895",
        "RA_OF_ASC_NODE": "162.8033",
        "ARG_OF_PERICENTER": "166.2441",
        "MEAN_ANOMALY": "193.9083",
        "EPHEMERIS_TYPE": "0",
        "CLASSIFICATION_TYPE": "U",
        "NORAD_CAT_ID": "24298",
        "ELEMENT_SET_NO": "999",
        "REV_AT_EPOCH": "45039",
        "BSTAR": "-0.00002432500000",
        "MEAN_MOTION_DOT": "-0.00000094",
        "MEAN_MOTION_DDOT": "0.0000000000000",
        "SEMIMAJOR_AXIS": "7229.118",
        "PERIOD": "101.950",
        "APOAPSIS": "861.626",
        "PERIAPSIS": "840.340",
        "OBJECT_TYPE": "ROCKET BODY",
        "RCS_SIZE": "LARGE",
        "COUNTRY_CODE": "CIS",
        "LAUNCH_DATE": "1996-09-04",
        "SITE": "TTMTR",
        "DECAY_DATE": null,
        "FILE": "4530563",
        "GP_ID": "271182400",
        "TLE_LINE0": "0 SL-16 R/B",
        "TLE_LINE1": "1 24298U 96051B   24295.07025187 -.00000094  00000-0 -24325-4 0  9993",
        "TLE_LINE2": "2 24298  70.7895 162.8033 0014722 166.2441 193.9083 14.12455576450390"
    }
]